DELTA 2 R/B(1)          
1 20453U 90008B   26138.10975234  .00043612  00000+0  38150-3 0  9997
2 20453  35.6021  76.1767 0070954 192.8346 167.0586 15.64489550936980
COSMOS 2058             
1 20465U 90010A   26138.02212345  .00002188  00000+0  12623-3 0  9991
2 20465  82.4684 339.1054 0010977  94.6195 265.6289 15.11824302952713
SL-14 R/B               
1 20466U 90010B   26138.15552389  .00000232  00000+0  25125-4 0  9991
2 20466  82.5037 202.1462 0021297  72.6082 287.7460 14.83626516938789
SL-14 R/B               
1 20511U 90018B   26138.10500736  .00000210  00000+0  23348-4 0  9995
2 20511  82.5204 158.2264 0015220 219.2006 140.8107 14.82195902932860
HST                     
1 20580U 90037B   26138.08457181  .00005136  00000+0  16211-3 0  9996
2 20580  28.4749 286.2564 0001786 152.3712 207.6979 15.30409410783956
SL-16 R/B               
1 20625U 90046B   26138.18706237 -.00000206  00000+0 -81716-4 0  9994
2 20625  70.9975 151.9549 0015154 207.9111 152.1201 14.15022873858225
COSMOS 2084             
1 20663U 90055A   26138.18283537  .00000969  00000+0  80024-4 0  9994
2 20663  62.7882  98.4881 0006852 230.3844 129.6652 15.05977480946786
SL-6 R/B(2)             
1 20666U 90055D   26138.06243287  .00001042  00000+0  89015-4 0  9994
2 20666  62.7833  17.8789 0035848   0.7650 359.3498 15.03887442948629
SL-8 R/B                
1 20775U 90078B   26138.14492541  .00015142  00000+0  43121-3 0  9991
2 20775  82.9028 188.7615 0354837 139.5011 223.3211 14.91293797819642
SL-8 R/B                
1 21088U 91006B   26138.06730193 -.00000041  00000+0 -56145-4 0  9995
2 21088  82.9398 118.4416 0021893 197.3413 237.1007 13.77504740773629
OKEAN-3                 
1 21397U 91039A   26138.09150529  .00001738  00000+0  11966-3 0  9999
2 21397  82.5148 269.5616 0015888  93.9320 266.3724 15.05165433875477
COSMOS 2151             
1 21422U 91042A   26138.18213323  .00000753  00000+0  57798-4 0  9994
2 21422  82.4980  16.6362 0012183 177.1760 182.9535 15.00350260873612
SL-14 R/B               
1 21423U 91042B   26138.10527935  .00000218  00000+0  24566-4 0  9997
2 21423  82.4919 155.1068 0017435  18.3688 341.8152 14.81881603863356
ERS-1                   
1 21574U 91050A   26138.06790514  .00000187  00000+0  74404-4 0  9994
2 21574  98.7814 158.0282 0031795 358.7078   1.4022 14.39497212825711
ARIANE 40 R/B           
1 21610U 91050F   26138.16213146  .00000164  00000+0  61560-4 0  9991
2 21610  98.1897 187.7454 0002496 198.0899 162.0203 14.42937347829013
INTERCOSMOS 25          
1 21819U 91086A   26138.07028957  .00000804  00000+0  15774-3 0  9991
2 21819  82.6026 268.0350 1485262 327.3804  24.3375 12.12157787505090
SL-8 R/B                
1 21876U 92008B   26138.23197796  .00000060  00000+0  46879-4 0  9990
2 21876  82.9288 216.0572 0033316 301.5220  83.6462 13.75972825718986
SL-8 R/B                
1 21938U 92020B   26138.14802845 -.00000014  00000+0 -30089-4 0  9998
2 21938  82.9283 102.1687 0030429 103.0882 267.7018 13.75546733710689
USA 81                  
1 21949U 92023A   26138.16670719  .00000116  00000+0  35396-4 0  9995
2 21949  85.0062  91.3320 0002232 108.8258 251.3177 14.32388742104730
COSMOS 2219             
1 22219U 92076A   26138.19784834 -.00000180  00000+0 -69681-4 0  9998
2 22219  71.0614 232.7629 0015594  93.9468 266.3438 14.14102515728206
SL-16 R/B               
1 22220U 92076B   26138.18426639 -.00000213  00000+0 -82033-4 0  9998
2 22220  71.0013  41.9840 0013423 339.5086 172.4796 14.16868251731677
COSMOS 2221             
1 22236U 92080A   26138.18362976  .00000869  00000+0  74193-4 0  9996
2 22236  82.5052 212.5059 0013074 324.0081  36.0260 14.96451009791188
SL-16 R/B               
1 22285U 92093B   26138.20791569 -.00000135  00000+0 -44527-4 0  9997
2 22285  71.0214 218.3257 0005564 223.0086 137.0603 14.15458073722992
COSMOS 2228             
1 22286U 92094A   26138.15305821  .00001040  00000+0  86682-4 0  9997
2 22286  82.5179 170.8091 0019425  70.6234 289.7086 14.97474455786453
SL-16 R/B               
1 22566U 93016B   26138.18479667  .00000052  00000+0  51336-4 0  9996
2 22566  71.0084  69.2209 0011800 226.4205 133.5939 14.15311950712005
COSMOS 2242             
1 22626U 93024A   26138.16586352  .00000974  00000+0  82501-4 0  9991
2 22626  82.5201 200.2610 0017738  74.1059 286.2117 14.96810251790786
SL-16 R/B               
1 22803U 93059B   26138.21087546  .00000173  00000+0  10934-3 0  9994
2 22803  70.9904 224.5173 0015021 106.5540 253.7235 14.17241632689382
ARIANE 40 R/B           
1 22830U 93061H   26138.17913266  .00000118  00000+0  58792-4 0  9993
2 22830  98.4830 205.6577 0011947  80.5239 279.7295 14.32893679704059
COSMOS 2278             
1 23087U 94023A   26138.04814399 -.00000226  00000+0 -93184-4 0  9996
2 23087  71.0545  29.9855 0011032 279.6582  80.3294 14.14385264654614
SL-16 R/B               
1 23088U 94023B   26138.13409763 -.00000132  00000+0 -43362-4 0  9991
2 23088  71.0003 285.0450 0004372 223.6220 136.4557 14.15023068655918
SL-16 R/B               
1 23343U 94074B   26138.04951060  .00000242  00000+0  38978-4 0  9990
2 23343  97.7011 166.0239 0006628   8.9827  44.5794 14.79474186697506
SL-16 R/B               
1 23405U 94077B   26138.15929604  .00000245  00000+0  14988-3 0  9990
2 23405  70.9824 206.3357 0001224   5.2220 354.8915 14.15570571626063
ARIANE 40+ R/B          
1 23561U 95021B   26138.16591742  .00000160  00000+0  65010-4 0  9991
2 23561  98.4419 208.6729 0005535 298.3011  89.7383 14.39815091629242
SL-16 R/B               
1 23705U 95058B   26138.09897917  .00000261  00000+0  15791-3 0  9998
2 23705  71.0230  34.5302 0012226   4.0840 356.0380 14.15506713577678
SL-16 R/B               
1 24298U 96051B   26138.14536972  .00000123  00000+0  93011-4 0  9996
2 24298  70.7634  28.2309 0013202  25.4947 334.6821 14.12435011531454
ORBVIEW 2 (SEASTAR)     
1 24883U 97037A   26138.18852911  .00000121  00000+0  58155-4 0  9997
2 24883  98.8664 304.3805 0001871 184.8305 175.2861 14.35536391518449
SL-16 R/B               
1 25400U 98043G   26138.12282861 -.00000016  00000+0  12313-4 0  9996
2 25400  98.8350  92.0269 0009995 167.0516 193.0922 14.26063002448884
SL-16 R/B               
1 25407U 98045B   26138.14644950 -.00000218  00000+0 -85820-4 0  9996
2 25407  71.0128  35.5067 0009759 277.2833  82.7180 14.16201241436930
ISS (ZARYA)             
1 25544U 98067A   26138.19793205  .00006286  00000+0  12105-3 0  9999
2 25544  51.6325  88.5573 0007513  70.6653 289.5148 15.49256023567106
CZ-4B R/B               
1 25732U 99025C   26138.08346654  .00000038  00000+0  38696-4 0  9996
2 25732  98.6507 180.6763 0037832 143.9138 270.5911 14.18277794398004
OKEAN-O                 
1 25860U 99039A   26138.13558148  .00000379  00000+0  56477-4 0  9997
2 25860  97.9334 197.2759 0001974  97.5685 262.5751 14.80427417444669
SL-16 R/B               
1 25861U 99039B   26138.11789368  .00000288  00000+0  43295-4 0  9999
2 25861  97.9856 197.0641 0015560  36.8726 323.3554 14.81811921447146
DELTA 2 R/B             
1 25876U 99041E   26138.09427066  .00000114  00000+0  57130-4 0  9990
2 25876  51.7645  24.0070 0501796 193.1137 165.6334 14.11959405372834
HELIOS 1B               
1 25977U 99064A   26137.98473628  .00000855  00000+0  99771-4 0  9998
2 25977  98.1638  42.2489 0001523 128.7273 231.4079 14.87917628695567
TERRA                   
1 25994U 99068A   26138.15935757  .00000242  00000+0  58208-4 0  9997
2 25994  97.9476 188.8930 0001719   3.8943  59.4657 14.61076786405220
SL-16 R/B               
1 26070U 00006B   26138.17991377 -.00000130  00000+0 -41641-4 0  9990
2 26070  71.0017 311.7212 0014454  73.9303 286.3410 14.15830745358393
TITAN 4B R/B            
1 26474U 00047B   26138.18864223  .00001507  00000+0  98887-4 0  9994
2 26474  67.9872 205.0001 0044366 317.8479  41.9261 15.10021931403401
ENVISAT                 
1 27386U 02009A   26138.13289791  .00000035  00000+0  25177-4 0  9990
2 27386  98.3820  90.1249 0001218  91.9245 278.6838 14.39056951269164
IDEFIX & ARIANE 42P R/B 
1 27422U 02021B   26138.06505507  .00000130  00000+0  65960-4 0  9993
2 27422  98.5937  75.8766 0011640 349.5968  10.4972 14.31066226253942
AQUA                    
1 27424U 02022A   26138.14783625  .00000475  00000+0  10443-3 0  9991
2 27424  98.4262 106.8352 0002048  72.3040 344.5769 14.62107086278883
CZ-4B R/B               
1 27432U 02024C   26138.18087955  .00000022  00000+0  34228-4 0  9995
2 27432  98.8720 191.1923 0050117 184.3733 246.7192 14.14559107239061
MIDORI II (ADEOS-II)    
1 27597U 02056A   26137.82717919  .00000147  00000+0  75732-4 0  9995
2 27597  98.7864  96.8329 0001786 118.0925 242.0438 14.29330898220171
H-2A R/B                
1 27601U 02056E   26138.13419021  .00000141  00000+0  64177-4 0  9994
2 27601  98.3300  95.9071 0069310 315.5858  54.1865 14.33806587224064
CZ-4B R/B               
1 28059U 03049C   26137.69998281  .00000202  00000+0  57962-4 0  9997
2 28059  98.6899 135.3347 0048584  22.5289 337.8025 14.55076336196631
CZ-2C R/B               
1 28222U 04012C   26138.19299332  .00051081  00000+0  36550-3 0  9997
2 28222  97.7111 210.5024 0010497  58.4234 301.8053 15.73519767215172
SL-16 R/B               
1 28353U 04021B   26138.17944229  .00000318  00000+0  19040-3 0  9994
2 28353  70.9999  86.6623 0006957 286.0333  74.0023 14.14606153132664
CZ-4B R/B               
1 28415U 04035C   26138.05531396  .00006028  00000+0  20599-3 0  9997
2 28415  97.3387 171.4765 0033109  83.1831 277.3175 15.30127215190515
CZ-2C R/B               
1 28480U 04046B   26138.18167933  .00000084  00000+0  47052-4 0  9997
2 28480  98.1963  48.8339 0138394 309.7643  49.1414 14.27018061118413
ARIANE 5 R/B            
1 28499U 04049H   26138.01963303  .00000527  00000+0  64364-4 0  9994
2 28499  98.2704 309.1123 0085074 125.9117 235.0031 14.85395957156083
